NUSAT-1 (FRESCO)        
1 41557U 16033B   22045.54353331  .00011478  00000+0  37777-3 0  9999
2 41557  97.3880 143.3788 0013580  94.4979  27.0609 15.31577131318552
BEESAT-4                
1 41619U 16040W   22045.36493500  .00010481  00000+0  38874-3 0  9991
2 41619  97.2373  99.4813 0009915 185.6435 174.4694 15.27735690301918
CAS-2T & KS-1Q          
1 41847U 16066G   22045.43384838  .00000796  00000+0  13028-3 0  9995
2 41847  98.5685 110.1634 0364099 217.5793 139.9440 14.38364133276661
NAYIF-1 (EO-88)         
1 42017U 17008BX  22045.15831126  .00011610  00000+0  39334-3 0  9993
2 42017  97.2869 113.3431 0004863 344.1368  15.9720 15.30710245278192
ZHUHAI-1 02 (CAS-4B)    
1 42759U 17034B   22045.58484660  .00003632  00000+0  22716-3 0  9990
2 42759  43.0184 289.4024 0009014 243.8800 193.9409 15.10905595257769
ZHUHAI-1 01 (CAS-4A)    
1 42761U 17034D   22045.41442130  .00003319  00000+0  20824-3 0  9991
2 42761  43.0183 289.2185 0009466 244.7055 110.3184 15.10986952257736
MAX VALIER SAT          
1 42778U 17036P   22045.56144239  .00004867  00000+0  19760-3 0  9992
2 42778  97.2249  90.9512 0012523  48.0038 312.2265 15.24969043258161
RADFXSAT (FOX-1B)       
1 43017U 17073E   22045.39536907  .00003234  00000+0  25155-3 0  9990
2 43017  97.6900 304.6098 0250878 230.2445 127.6427 14.80382915228909
FOX-1D (AO-92)          
1 43137U 18004AC  22045.44392004  .00007294  00000+0  27816-3 0  9998
2 43137  97.3826 121.8810 0009763  79.9368 280.2972 15.26937032227563
DIWATA-2B               
1 43678U 18084H   22045.52208127  .00000878  00000+0  92529-4 0  9992
2 43678  97.9490 177.5259 0009413 339.9573  20.1294 14.91919719179523
ES'HAIL 2               
1 43700U 18090A   22045.51301559  .00000146  00000+0  00000+0 0  9993
2 43700   0.0277 117.1456 0002459 235.3762   2.4610  1.00270285 11791
FOX-1CLIFF (AO-95)      
1 43770U 18099N   22045.45918523  .00002124  00000+0  19529-3 0  9995
2 43770  97.6369 114.9762 0013461 333.0370  27.0151 14.95773255174621
ITASAT 1                
1 43786U 18099AE  22045.46843273  .00002182  00000+0  19929-3 0  9990
2 43786  97.6394 115.8294 0013892 325.6919  34.3404 14.96008979174661
JY1SAT (JO-97)          
1 43803U 18099AX  22045.45330778  .00002122  00000+0  19223-3 0  9991
2 43803  97.6350 115.5523 0013983 323.9272  36.1005 14.96350469174671
UWE-4                   
1 43880U 18111E   22045.54014768  .00002177  00000+0  19202-3 0  9996
2 43880  97.6767 314.0128 0012393  19.4484 340.7208 14.97388073171300
NEXUS (FO-99)           
1 43937U 19003F   22045.59933590  .00007399  00000+0  27407-3 0  9995
2 43937  97.1481  83.8948 0020669 229.3333 130.6111 15.27724451171208
PSAT2 (NO-104)          
1 44354U 19036R   22045.03557098  .00062302  00000+0  71106-3 0  9999
2 44354  28.5260 304.4174 0281275  34.8323 327.0345 15.25426284145739
BRICSAT2 (NO-103)       
1 44355U 19036S   22045.55011678  .00162828  26807-6  94550-3 0  9998
2 44355  28.5207 198.4358 0148346 206.9324 152.3519 15.63042586146835
JAISAT-1                
1 44419U 19038F   22045.48654833  .00005213  00000+0  28007-3 0  9997
2 44419  97.6212  14.9424 0019866 192.0107 168.0654 15.15185456144421
DUCHIFAT-3              
1 44854U 19089C   22045.47300321  .00003216  00000+0  25884-3 0  9996
2 44854  36.9666 108.8597 0008959 302.3967  57.5964 15.00134852119457
CAS-6 (TO-108)          
1 44881U 19093C   22045.53194584  .00000466  00000+0  66046-4 0  9990
2 44881  97.9034 126.4734 0013921 222.5715 137.4427 14.81567395116573
RS-44 & BREEZE-KM R/B   
1 44909U 19096E   22045.44454285  .00000005  00000+0 -17127-4 0  9997
2 44909  82.5236 312.0182 0216337 247.2853 110.5252 12.79711900 99779
ORBITAL FACTORY 2 (OF-2)
1 45113U 19071C   22045.12195555  .00018629  00000+0  47539-3 0  9994
2 45113  51.6412 303.2762 0011305  92.3962 267.8317 15.39479856114343
HUSKYSAT-1 (HO-107)     
1 45119U 19071J   22045.40663749  .00014714  00000+0  38130-3 0  9994
2 45119  51.6406 301.4111 0010880  89.8255 270.3976 15.39202203114387
BY70-2                  
1 45857U 20042B   22045.62542102  .00005251  00000+0  73146-3 0  9998
2 45857  97.9645 123.7725 0011906 149.0944 211.1002 14.78136733 87304
SALSAT                  
1 46495U 20068K   22045.56149584  .00001795  00000+0  13450-3 0  9996
2 46495  97.7197 346.9797 0015963 339.9832  20.0765 15.03891862 75719
BY70-3                  
1 46839U 20079N   22045.51454112  .00018108  00000+0  50255-3 0  9991
2 46839  97.2148 119.6308 0008090  62.2813  63.9706 15.36929265 71333
RADFXSAT-2 (AO-109)     
1 47311U 21002C   22045.46796295  .00005536  00000+0  24228-3 0  9991
2 47311  60.6864 104.4179 0022137 177.0327 183.0896 15.23181326 59715
UVSQ-SAT                
1 47438U 21006AB  22045.41960768  .00004243  00000+0  23588-3 0  9990
2 47438  97.4563 106.9925 0011933 349.3714  10.7264 15.14165133 58656
DIY-1 (ARDUIQUBE)       
1 47963U 21022AH  22045.46936139  .00011112  00000+0  69160-3 0  9990
2 47963  97.5447 308.5646 0017730 191.4134 168.6696 15.09640393 48374
XW-3 (CAS-9)            
1 50466U 21131B   22045.47108649  .00000085  00000+0  42428-4 0  9997
2 50466  98.5920 122.7396 0005479 144.1462 216.0108 14.38442075  7231
